*******************************************************************************
Ephemeris / WWW_USER Mon Jul 15 19:12:06 2024 Pasadena, USA      / Horizons    
*******************************************************************************
Target body name: (2018 VS1)                      {source: JPL#4}
Center body name: Earth (399)                     {source: DE441}
Center-site name: Gemini South Obs., Cerro Pachon
*******************************************************************************
Start time      : A.D. 2019-Jan-20 23:56:00.0000 UT      
Stop  time      : A.D. 2019-Jan-21 09:52:00.0000 UT      
Step-size       : 1 minutes
*******************************************************************************
Target pole/equ : undefined
Target radii    : undefined                                                    
Center geodetic : 289.2634, -30.2406227, 2.71233  {E-lon(deg),Lat(deg),Alt(km)}
Center cylindric: 289.2634,5517.21435,-3194.81213 {E-lon(deg),Dxy(km),Dz(km)}
Center pole/equ : ITRF93                          {East-longitude positive}
Center radii    : 6378.137, 6378.137, 6356.752 km {Equator_a, b, pole_c}       
Target primary  : Sun
Vis. interferer : MOON (R_eq= 1737.400) km        {source: DE441}
Rel. light bend : Sun                             {source: DE441}
Rel. lght bnd GM: 1.3271E+11 km^3/s^2                                          
Small-body perts: Yes                             {source: SB441-N16}
Atmos refraction: NO (AIRLESS)
RA format       : HMS
Time format     : CAL 
Calendar mode   : Mixed Julian/Gregorian
RTS-only print  : NO       
EOP file        : eop.240715.p241008                                           
EOP coverage    : DATA-BASED 1962-JAN-20 TO 2024-JUL-15. PREDICTS-> 2024-OCT-07
Units conversion: 1 au= 149597870.700 km, c= 299792.458 km/s, 1 day= 86400.0 s 
Table cut-offs 1: Elevation (-90.0deg=NO ),Airmass (>38.000=NO), Daylight (YES)
Table cut-offs 2: Solar elongation (  0.0,180.0=NO ),Local Hour Angle( 0.0=NO )
Table cut-offs 3: RA/DEC angular rate (     0.0=NO )                           
*******************************************************************************
Initial IAU76/J2000 heliocentric ecliptic osculating elements (au, days, deg.):
  EPOCH=  2458427.5 ! 2018-Nov-05.00 (TDB)         Residual RMS= .21634        
   EC= .3907275528854954   QR= .7806320880190512   TP= 2458486.1030618688      
   OM= 55.95483604725189   W=  67.17004921097404   IN= 3.601110299269385       
  Equivalent ICRF heliocentric cartesian coordinates (au, au/d):
   X= 7.595935200506908E-01  Y= 6.354459268576240E-01  Z= 2.586666727482118E-01
  VX=-1.643099138746886E-02 VY= 7.530892270769961E-03 VZ= 4.533522122669557E-03
Asteroid physical parameters (km, seconds, rotational period in hours):        
   GM= n.a.                RAD= n.a.               ROTPER= n.a.                
   H= 26.6                 G= .150                 B-V= n.a.                   
                           ALBEDO= n.a.            STYP= n.a.                  
*******************************************************************************
 Date__(UT)__HR:MN     R.A._________(ICRF)_________DEC
******************************************************
$$SOE
 2019-Jan-21 04:02  m  16 16 32.295893 -15 41 26.47267
 2019-Jan-21 04:03  m  16 16 32.407299 -15 41 26.95563
 2019-Jan-21 04:04  m  16 16 32.518692 -15 41 27.43864
 2019-Jan-21 04:05  m  16 16 32.630072 -15 41 27.92169
 2019-Jan-21 04:06  m  16 16 32.741439 -15 41 28.40479
 2019-Jan-21 04:07  m  16 16 32.852792 -15 41 28.88793
 2019-Jan-21 04:08  m  16 16 32.964133 -15 41 29.37112
 2019-Jan-21 04:09  m  16 16 33.075460 -15 41 29.85436
 2019-Jan-21 04:10  m  16 16 33.186774 -15 41 30.33764
 2019-Jan-21 04:11  m  16 16 33.298075 -15 41 30.82097
 2019-Jan-21 04:12  m  16 16 33.409362 -15 41 31.30434
 2019-Jan-21 04:13  m  16 16 33.520635 -15 41 31.78776
 2019-Jan-21 04:14  m  16 16 33.631896 -15 41 32.27122
 2019-Jan-21 04:15  m  16 16 33.743142 -15 41 32.75472
 2019-Jan-21 04:16  m  16 16 33.854375 -15 41 33.23827
 2019-Jan-21 04:17  m  16 16 33.965594 -15 41 33.72186
 2019-Jan-21 04:18  m  16 16 34.076799 -15 41 34.20550
 2019-Jan-21 04:19  m  16 16 34.187991 -15 41 34.68918
 2019-Jan-21 04:20  m  16 16 34.299169 -15 41 35.17290
 2019-Jan-21 04:21  m  16 16 34.410333 -15 41 35.65666
 2019-Jan-21 04:22  m  16 16 34.521482 -15 41 36.14047
 2019-Jan-21 04:23  m  16 16 34.632618 -15 41 36.62432
 2019-Jan-21 04:24  m  16 16 34.743740 -15 41 37.10821
 2019-Jan-21 04:25  m  16 16 34.854848 -15 41 37.59214
 2019-Jan-21 04:26  m  16 16 34.965941 -15 41 38.07612
 2019-Jan-21 04:27  m  16 16 35.077020 -15 41 38.56013
 2019-Jan-21 04:28  m  16 16 35.188085 -15 41 39.04419
 2019-Jan-21 04:29  m  16 16 35.299136 -15 41 39.52828
 2019-Jan-21 04:30  m  16 16 35.410172 -15 41 40.01242
 2019-Jan-21 04:31  m  16 16 35.521194 -15 41 40.49660
 2019-Jan-21 04:32  m  16 16 35.632202 -15 41 40.98081
 2019-Jan-21 04:33  m  16 16 35.743195 -15 41 41.46507
 2019-Jan-21 04:34  m  16 16 35.854173 -15 41 41.94937
 2019-Jan-21 04:35  m  16 16 35.965137 -15 41 42.43370
 2019-Jan-21 04:36  m  16 16 36.076086 -15 41 42.91808
 2019-Jan-21 04:37  m  16 16 36.187020 -15 41 43.40249
 2019-Jan-21 04:38  m  16 16 36.297940 -15 41 43.88694
 2019-Jan-21 04:39  m  16 16 36.408845 -15 41 44.37143
 2019-Jan-21 04:40  m  16 16 36.519735 -15 41 44.85595
 2019-Jan-21 04:41  m  16 16 36.630610 -15 41 45.34052
 2019-Jan-21 04:42  m  16 16 36.741470 -15 41 45.82512
 2019-Jan-21 04:43  m  16 16 36.852315 -15 41 46.30976
 2019-Jan-21 04:44  m  16 16 36.963145 -15 41 46.79443
 2019-Jan-21 04:45  m  16 16 37.073960 -15 41 47.27915
 2019-Jan-21 04:46  m  16 16 37.184760 -15 41 47.76389
 2019-Jan-21 04:47  m  16 16 37.295545 -15 41 48.24868
 2019-Jan-21 04:48  m  16 16 37.406314 -15 41 48.73350
 2019-Jan-21 04:49  m  16 16 37.517069 -15 41 49.21835
 2019-Jan-21 04:50  m  16 16 37.627808 -15 41 49.70324
 2019-Jan-21 04:51  m  16 16 37.738531 -15 41 50.18817
 2019-Jan-21 04:52  m  16 16 37.849240 -15 41 50.67313
 2019-Jan-21 04:53  m  16 16 37.959932 -15 41 51.15812
 2019-Jan-21 04:54  m  16 16 38.070610 -15 41 51.64315
 2019-Jan-21 04:55  m  16 16 38.181272 -15 41 52.12821
 2019-Jan-21 04:56  m  16 16 38.291918 -15 41 52.61331
 2019-Jan-21 04:57  m  16 16 38.402549 -15 41 53.09844
 2019-Jan-21 04:58  m  16 16 38.513164 -15 41 53.58360
 2019-Jan-21 04:59  m  16 16 38.623763 -15 41 54.06879
 2019-Jan-21 05:00  m  16 16 38.734347 -15 41 54.55402
 2019-Jan-21 05:01  m  16 16 38.844915 -15 41 55.03928
 2019-Jan-21 05:02  m  16 16 38.955467 -15 41 55.52457
 2019-Jan-21 05:03  m  16 16 39.066003 -15 41 56.00989
 2019-Jan-21 05:04  m  16 16 39.176524 -15 41 56.49524
 2019-Jan-21 05:05  m  16 16 39.287028 -15 41 56.98063
 2019-Jan-21 05:06  m  16 16 39.397517 -15 41 57.46604
 2019-Jan-21 05:07  m  16 16 39.507989 -15 41 57.95149
 2019-Jan-21 05:08  m  16 16 39.618446 -15 41 58.43696
 2019-Jan-21 05:09  m  16 16 39.728886 -15 41 58.92247
 2019-Jan-21 05:10  m  16 16 39.839311 -15 41 59.40801
 2019-Jan-21 05:11  m  16 16 39.949719 -15 41 59.89357
 2019-Jan-21 05:12  m  16 16 40.060111 -15 42 00.37916
 2019-Jan-21 05:13  m  16 16 40.170487 -15 42 00.86479
 2019-Jan-21 05:14  m  16 16 40.280846 -15 42 01.35044
 2019-Jan-21 05:15  m  16 16 40.391190 -15 42 01.83612
 2019-Jan-21 05:16  m  16 16 40.501517 -15 42 02.32182
 2019-Jan-21 05:17  m  16 16 40.611827 -15 42 02.80756
 2019-Jan-21 05:18  m  16 16 40.722121 -15 42 03.29332
 2019-Jan-21 05:19  m  16 16 40.832399 -15 42 03.77911
 2019-Jan-21 05:20  m  16 16 40.942660 -15 42 04.26492
 2019-Jan-21 05:21  m  16 16 41.052905 -15 42 04.75077
 2019-Jan-21 05:22  m  16 16 41.163133 -15 42 05.23663
 2019-Jan-21 05:23  m  16 16 41.273345 -15 42 05.72253
 2019-Jan-21 05:24  m  16 16 41.383540 -15 42 06.20845
 2019-Jan-21 05:25  m  16 16 41.493719 -15 42 06.69439
 2019-Jan-21 05:26  m  16 16 41.603880 -15 42 07.18036
 2019-Jan-21 05:27  m  16 16 41.714026 -15 42 07.66636
 2019-Jan-21 05:28  m  16 16 41.824154 -15 42 08.15237
 2019-Jan-21 05:29  m  16 16 41.934266 -15 42 08.63842
 2019-Jan-21 05:30  m  16 16 42.044360 -15 42 09.12448
 2019-Jan-21 05:31  m  16 16 42.154438 -15 42 09.61057
 2019-Jan-21 05:32  m  16 16 42.264500 -15 42 10.09669
 2019-Jan-21 05:33  m  16 16 42.374544 -15 42 10.58282
 2019-Jan-21 05:34  m  16 16 42.484571 -15 42 11.06898
 2019-Jan-21 05:35  m  16 16 42.594582 -15 42 11.55516
 2019-Jan-21 05:36  m  16 16 42.704575 -15 42 12.04137
 2019-Jan-21 05:37  m  16 16 42.814552 -15 42 12.52759
 2019-Jan-21 05:38  m  16 16 42.924511 -15 42 13.01384
 2019-Jan-21 05:39  m  16 16 43.034453 -15 42 13.50011
 2019-Jan-21 05:40  m  16 16 43.144379 -15 42 13.98639
 2019-Jan-21 05:41  m  16 16 43.254287 -15 42 14.47270
 2019-Jan-21 05:42  m  16 16 43.364178 -15 42 14.95903
 2019-Jan-21 05:43  m  16 16 43.474052 -15 42 15.44538
 2019-Jan-21 05:44  m  16 16 43.583909 -15 42 15.93175
 2019-Jan-21 05:45  m  16 16 43.693748 -15 42 16.41814
 2019-Jan-21 05:46  m  16 16 43.803570 -15 42 16.90455
 2019-Jan-21 05:47  m  16 16 43.913375 -15 42 17.39097
 2019-Jan-21 05:48  m  16 16 44.023163 -15 42 17.87741
 2019-Jan-21 05:49  m  16 16 44.132933 -15 42 18.36388
 2019-Jan-21 05:50  m  16 16 44.242686 -15 42 18.85036
 2019-Jan-21 05:51  m  16 16 44.352422 -15 42 19.33685
 2019-Jan-21 05:52  m  16 16 44.462140 -15 42 19.82337
 2019-Jan-21 05:53  m  16 16 44.571841 -15 42 20.30990
 2019-Jan-21 05:54  m  16 16 44.681525 -15 42 20.79645
 2019-Jan-21 05:55  m  16 16 44.791191 -15 42 21.28301
 2019-Jan-21 05:56  m  16 16 44.900839 -15 42 21.76959
 2019-Jan-21 05:57  m  16 16 45.010470 -15 42 22.25619
 2019-Jan-21 05:58  m  16 16 45.120084 -15 42 22.74280
 2019-Jan-21 05:59  m  16 16 45.229680 -15 42 23.22942
 2019-Jan-21 06:00  m  16 16 45.339258 -15 42 23.71607
 2019-Jan-21 06:01  m  16 16 45.448819 -15 42 24.20272
 2019-Jan-21 06:02  m  16 16 45.558362 -15 42 24.68939
 2019-Jan-21 06:03  m  16 16 45.667888 -15 42 25.17607
 2019-Jan-21 06:04  m  16 16 45.777395 -15 42 25.66277
